[{"OBJECT_NAME":"STARLINK-4310","OBJECT_ID":"2022-077AH","EPOCH":"2026-03-09T23:24:38.242368","MEAN_MOTION":15.05639905,"ECCENTRICITY":0.00017732,"INCLINATION":97.6021,"RA_OF_ASC_NODE":251.4717,"ARG_OF_PERICENTER":113.1748,"MEAN_ANOMALY":246.9665,"EPHEMERIS_TYPE":0,"CLASSIFICATION_TYPE":"U","NORAD_CAT_ID":53074,"ELEMENT_SET_NO":999,"REV_AT_EPOCH":20102,"BSTAR":7.9434803e-5,"MEAN_MOTION_DOT":1.085e-5,"MEAN_MOTION_DDOT":0},{"OBJECT_NAME":"MINOTAUR 4 DEB","OBJECT_ID":"2020-046AB","EPOCH":"2026-03-09T21:53:22.840224","MEAN_MOTION":15.04149387,"ECCENTRICITY":0.00103054,"INCLINATION":53.9803,"RA_OF_ASC_NODE":316.6393,"ARG_OF_PERICENTER":80.1776,"MEAN_ANOMALY":280.0387,"EPHEMERIS_TYPE":0,"CLASSIFICATION_TYPE":"U","NORAD_CAT_ID":52037,"ELEMENT_SET_NO":999,"REV_AT_EPOCH":22693,"BSTAR":0.00012711185,"MEAN_MOTION_DOT":1.507e-5,"MEAN_MOTION_DDOT":0}]
